#aV2007  4 20  0  0   .00000000      96 DD+AD WGS84 FIT  NGA
## 1423 432000.00000000   900.00000000 54210  .0000000000000
+   30     1  2  3  4  5  6  7  8  9 10 11 12 13 14 16 17 18
+         19 20 21 22 23 24 25 26 27 28 29 30 31  0  0  0  0
+          0  0  0  0  0  0  0  0  0  0  0  0  0  0  0  0  0
+          0  0  0  0  0  0  0  0  0  0  0  0  0  0  0  0  0
+          0  0  0  0  0  0  0  0  0  0  0  0  0  0  0  0  0
++         0  0  0  0  0  0  0  0  0  0  0  0  0  0  0  0  0
++         0  0  0  0  0  0  0  0  0  0  0  0  0  0  0  0  0
++         0  0  0  0  0  0  0  0  0  0  0  0  0  0  0  0  0
++         0  0  0  0  0  0  0  0  0  0  0  0  0  0  0  0  0
++         0  0  0  0  0  0  0  0  0  0  0  0  0  0  0  0  0
%c cc cc ccc ccc cccc cccc cccc cccc ccccc ccccc ccccc ccccc
%c cc cc ccc ccc cccc cccc cccc cccc ccccc ccccc ccccc ccccc
%f  0.0000000  0.000000000  0.00000000000  0.000000000000000
%f  0.0000000  0.000000000  0.00000000000  0.000000000000000
%i    0    0    0    0      0      0      0      0         0
%i    0    0    0    0      0      0      0      0         0
/*      NGA, ST. LOUIS,MO.                                  
/*   EPHEMERIS COMPUTED FROM  3 DAYS OF DATA                
/* CCCCCCCCCCCCCCCCCCCCCCCCCCCCCCCCCCCCCCCCCCCCCCCCCCCCCCCCC
/* CCCCCCCCCCCCCCCCCCCCCCCCCCCCCCCCCCCCCCCCCCCCCCCCCCCCCCCCC
*  2007  4 20 14 45   .00000000                                                 
P  1 -14398.132583  22278.804801    119.459400    121.784420                    
V  1  -1561.915302  -1132.926611 -32438.199528       .026580                    
P  2  12345.161078 -13586.299000  18873.491541    100.372367                    
V  2  24574.107809   1730.676297 -14929.243478       .029673                    
P  3  -9627.970518  24495.075861  -1982.756434     45.509747                    
V  3  -4759.384388    357.829947  31043.161642       .056687                    
P  4  23543.257337  -7075.295654  10439.021674     10.537243                    
V  4  13207.450417   2860.941141 -27309.017135       .004589                    
P  5 -15072.840679 -21972.762583   -120.859248     28.839697                    
V  5   2702.289886  -2013.678366 -31168.968695      -.086833                    
P  6 -12355.703809 -10324.687507  21309.699503    149.790831                    
V  6  13036.538547 -23338.626577  -3829.938241       .171495                    
P  7 -15023.252118  -5505.756982  21549.519323    337.391627                    
V  7  11811.993594 -23894.816081   2091.829840      -.156489                    
P  8  26770.351672    463.078462  -1324.754751   -104.384612                    
V  8   1420.091423   1980.225795  31776.418938      -.013851                    
P  9  -7956.610324 -14542.974576 -21388.409798     66.846022                    
V  9  25710.008035  -1390.772617  -8641.970618       .017036                    
P 10   2813.959438 -19749.848032  17254.766890    100.672516                    
V 10  12117.291958  18735.577992  19652.933186       .006387                    
P 11  10883.913679  14282.936950 -19744.353565     13.835696                    
V 11 -24523.436647   5386.200233  -9381.495050       .010424                    
P 12 -11859.169294 -23692.367228  -2140.938089    -44.060226                    
V 12   3812.694639   1097.020463 -31570.498819      -.002017                    
P 13  12624.912269   7013.874567  22188.612437    164.884076                    
V 13 -15068.197538  23988.389461   1031.207977       .036328                    
P 14 -18575.489968  12257.339238 -14363.845071     16.642756                    
V 14   8255.654161 -16465.840094 -24654.842260       .016376                    
P 16  -7694.093174  15320.015088  20334.204752    141.336467                    
V 16 -13340.863136 -21945.422739  11677.019937       .031784                    
P 17  18777.872724  -9944.161935 -15844.157498     71.030879                    
V 17  -8540.233754  18410.231368 -21786.291709      -.012155                    
P 18 -18310.287592 -11900.185417 -15209.562675   -251.390248                    
V 18  -7151.996985 -18187.341628  22310.977918       .006332                    
P 19  -5320.701217  22984.779275 -11993.415216     26.581130                    
V 19 -10722.414178  11381.487662  26455.627676       .036286                    
P 20  12471.895471  23430.379949  -1541.570745    -23.850384                    
V 20  -3540.361047    -48.836379 -31470.505088      -.003460                    
P 21 -25411.274324  -5782.773734   6618.842797     75.673496                    
V 21   8254.970826  -2511.913784  29425.612177       .006121                    
P 22 -16405.245565    380.981201 -20737.909984    177.919832                    
V 22 -11333.916827 -24200.814013   8432.944514       .021071                    
P 23   5610.363666  16905.774862  19554.136817    161.217478                    
V 23 -13716.506380  20989.884085 -14342.883615       .023225                    
P 24 -16103.538371 -12804.011369  16840.472232     94.276561                    
V 24  21199.508019   -798.852714  20197.382081       .029413                    
P 25   7072.561978  14501.421383  21485.245767    218.170787                    
V 25 -26209.534820   3003.635394   6888.920808      -.287429                    
P 26   6456.976763 -23304.911053 -10707.228498   -151.397137                    
V 26   8613.778685 -10062.903601  28794.866988      -.201239                    
P 27  24792.452569   4973.696169   9161.462443    106.115223                    
V 27 -10521.615704   2761.330044  28792.431948       .021098                    
P 28  17564.506199   4202.869582 -19257.089865      2.819669                    
V 28  10885.949622  22603.311035  14270.877702      -.008856                    
P 29   9720.445427 -23834.850464  -5483.881946      1.909848                    
V 29   5565.467746  -5192.231963  31595.147509       .005128                    
P 30 -17653.347529 -18402.800817   7326.390227     31.570666                    
V 30  -2507.730671  -9859.427745 -29463.114964       .010516                    
P 31 -22291.363802   8379.497649  12034.930529     19.746684                    
V 31 -14942.120694  -2226.558481 -26499.989790       .004516                    
EOF
